NORAD_CAT_ID,OBJECT_NAME,OBJECT_TYPE,EPOCH,MEAN_MOTION,ECCENTRICITY,INCLINATION,RA_OF_ASC_NODE,ARG_OF_PERICENTER,MEAN_ANOMALY,BSTAR,MEAN_MOTION_DOT,MEAN_MOTION_DDOT,TLE_LINE0,TLE_LINE1,TLE_LINE2,SEMIMAJOR_AXIS,PERIOD,APOGEE,PERIGEE,DECAYED
56786.0,STARLINK-6341,PAYLOAD,2024-02-05 11:59:36,14.98341012,0.0002929,69.9985,88.7871,270.8359,89.2465,0.00028639,3.327e-05,0.0,0 STARLINK-6341,1 56786U 23078V   24036.49972577  .00003327  00000-0  28639-3 0  9993,2 56786  69.9985  88.7871 0002929 270.8359  89.2465 14.98341012 39116,6950.159,96.106,574.06,569.988,0.0
56786.0,STARLINK-6341,PAYLOAD,2024-02-05 13:35:44,14.98342327,0.0002912,69.9986,88.6188,270.4064,89.6761,0.00029559,3.437e-05,0.0,0 STARLINK-6341,1 56786U 23078V   24036.56648419  .00003437  00000-0  29559-3 0  9990,2 56786  69.9986  88.6188 0002912 270.4064  89.6761 14.98342327 38862,6950.155,96.106,574.044,569.996,0.0
56786.0,STARLINK-6341,PAYLOAD,2024-02-06 04:00:57,14.98336782,0.0002603,69.9995,87.1046,268.357,91.7291,4.4027e-05,4.32e-06,0.0,0 STARLINK-6341,1 56786U 23078V   24037.16733155  .00000432  00000-0  44027-4 0  9999,2 56786  69.9995  87.1046 0002603 268.3570  91.7291 14.98336782 39214,6950.172,96.107,573.846,570.228,0.0
56786.0,STARLINK-6341,PAYLOAD,2024-02-06 13:37:45,14.98338289,0.0002596,69.9994,86.0949,267.0887,92.9975,4.8643e-05,4.88e-06,0.0,0 STARLINK-6341,1 56786U 23078V   24037.56788800  .00000488  00000-0  48643-4 0  9999,2 56786  69.9994  86.0949 0002596 267.0887  92.9975 14.98338289 39015,6950.167,96.106,573.837,570.228,0.0
56786.0,STARLINK-6341,PAYLOAD,2024-02-07 04:02:58,14.98338517,0.000242,69.9999,84.5808,264.2385,95.8498,-0.00014878,-1.868e-05,0.0,0 STARLINK-6341,1 56786U 23078V   24038.16872920 -.00001868  00000-0 -14878-3 0  9990,2 56786  69.9999  84.5808 0002420 264.2385  95.8498 14.98338517 39369,6950.167,96.106,573.713,570.35,0.0
56786.0,STARLINK-6341,PAYLOAD,2024-02-07 12:03:38,14.98337935,0.0002464,69.9998,83.7383,269.3746,90.7131,-0.00014623,-1.838e-05,0.0,0 STARLINK-6341,1 56786U 23078V   24038.50252771 -.00001838  00000-0 -14623-3 0  9999,2 56786  69.9998  83.7383 0002464 269.3746  90.7131 14.98337935 39150,6950.168,96.106,573.746,570.321,0.0
56786.0,STARLINK-6341,PAYLOAD,2024-02-08 04:04:59,14.98328815,0.0002598,69.9992,82.054,269.2038,90.8824,-3.2211e-05,-4.77e-06,0.0,0 STARLINK-6341,1 56786U 23078V   24039.17012775 -.00000477  00000-0 -32211-4 0  9993,2 56786  69.9992  82.0540 0002598 269.2038  90.8824 14.98328815 39519,6950.197,96.107,573.867,570.256,0.0
56786.0,STARLINK-6341,PAYLOAD,2024-02-08 12:05:39,14.98327855,0.0002705,69.9988,81.2121,264.8007,95.2843,-7.6063e-05,-1e-05,0.0,0 STARLINK-6341,1 56786U 23078V   24039.50392945 -.00001000  00000-0 -76063-4 0  9996,2 56786  69.9988  81.2121 0002705 264.8007  95.2843 14.98327855 39307,6950.2,96.107,573.945,570.184,0.0
56786.0,STARLINK-6341,PAYLOAD,2024-02-08 20:06:19,14.98332542,0.0002896,69.9985,80.3707,270.8117,89.271,-7.3885e-05,-9.75e-06,0.0,0 STARLINK-6341,1 56786U 23078V   24039.83772593 -.00000975  00000-0 -73885-4 0  9992,2 56786  69.9985  80.3707 0002896 270.8117  89.2710 14.98332542 39354,6950.185,96.107,574.063,570.037,0.0
56786.0,STARLINK-6341,PAYLOAD,2024-02-09 04:07:00,14.98326634,0.0002854,69.9985,79.5289,269.9701,90.1131,9.1451e-06,1.6e-07,0.0,0 STARLINK-6341,1 56786U 23078V   24040.17152799  .00000016  00000-0  91451-5 0  9995,2 56786  69.9985  79.5289 0002854 269.9701  90.1131 14.98326634 39668,6950.203,96.107,574.052,570.085,0.0
56786.0,STARLINK-6341,PAYLOAD,2024-02-09 12:07:39,14.9833299,0.0002904,69.9985,78.6873,271.3413,88.7414,3.5322e-05,3.28e-06,0.0,0 STARLINK-6341,1 56786U 23078V   24040.50532344  .00000328  00000-0  35322-4 0  9990,2 56786  69.9985  78.6873 0002904 271.3413  88.7414 14.98332990 39456,6950.184,96.107,574.067,570.03,0.0
56786.0,STARLINK-6341,PAYLOAD,2024-02-10 12:09:41,14.98327558,0.0002943,69.9985,76.1622,270.5874,89.4948,1.0158e-05,2.8e-07,0.0,0 STARLINK-6341,1 56786U 23078V   24041.50672700  .00000028  00000-0  10158-4 0  9999,2 56786  69.9985  76.1622 0002943 270.5874  89.4948 14.98327558 39865,6950.2,96.107,574.111,570.02,0.0
56786.0,STARLINK-6341,PAYLOAD,2024-02-11 12:11:41,14.98335622,0.0002887,69.9988,73.6374,264.3004,95.7826,2.9655e-05,2.61e-06,0.0,0 STARLINK-6341,1 56786U 23078V   24042.50812031  .00000261  00000-0  29655-4 0  9994,2 56786  69.9988  73.6374 0002887 264.3004  95.7826 14.98335622 40012,6950.176,96.107,574.047,570.034,0.0
56786.0,STARLINK-6341,PAYLOAD,2024-02-12 12:13:42,14.98331703,0.0002674,69.9994,71.1123,263.8307,96.2547,5.8701e-05,6.08e-06,0.0,0 STARLINK-6341,1 56786U 23078V   24043.50951989  .00000608  00000-0  58701-4 0  9990,2 56786  69.9994  71.1123 0002674 263.8307  96.2547 14.98331703 40166,6950.188,96.107,573.911,570.194,0.0
56786.0,STARLINK-6341,PAYLOAD,2024-02-13 04:15:03,14.98326194,0.0002475,69.9997,69.4286,261.2261,98.8618,-5.2933e-05,-7.24e-06,0.0,0 STARLINK-6341,1 56786U 23078V   24044.17712659 -.00000724  00000-0 -52933-4 0  9995,2 56786  69.9997  69.4286 0002475 261.2261  98.8618 14.98326194 40265,6950.205,96.107,573.79,570.349,0.0
56786.0,STARLINK-6341,PAYLOAD,2024-02-13 10:39:36,14.98324782,0.0002538,69.9998,68.7553,267.5985,92.4884,-7.086e-05,-9.38e-06,0.0,0 STARLINK-6341,1 56786U 23078V   24044.44416896 -.00000938  00000-0 -70860-4 0  9995,2 56786  69.9998  68.7553 0002538 267.5985  92.4884 14.98324782 40049,6950.209,96.107,573.838,570.31,0.0
56786.0,STARLINK-6341,PAYLOAD,2024-02-13 18:40:16,14.98326461,0.0002537,69.9997,67.9139,269.4648,90.622,-6.4491e-05,-8.62e-06,0.0,0 STARLINK-6341,1 56786U 23078V   24044.77796852 -.00000862  00000-0 -64491-4 0  9993,2 56786  69.9997  67.9139 0002537 269.4648  90.6220 14.98326461 40090,6950.204,96.107,573.832,570.306,0.0
56786.0,STARLINK-6341,PAYLOAD,2024-02-14 04:17:04,14.98332758,0.0002751,69.999,66.9033,269.8417,90.2427,-7.7358e-06,-1.85e-06,0.0,0 STARLINK-6341,1 56786U 23078V   24045.17852249 -.00000185  00000-0 -77358-5 0  9996,2 56786  69.9990  66.9033 0002751 269.8417  90.2427 14.98332758 40418,6950.184,96.107,573.961,570.137,0.0
56786.0,STARLINK-6341,PAYLOAD,2024-02-14 12:17:44,14.98334311,0.000285,69.9989,66.0612,270.9134,89.1698,1.9536e-05,1.4e-06,0.0,0 STARLINK-6341,1 56786U 23078V   24045.51232019  .00000140  00000-0  19536-4 0  9993,2 56786  69.9989  66.0612 0002850 270.9134  89.1698 14.98334311 40200,6950.18,96.107,574.025,570.064,0.0
56786.0,STARLINK-6341,PAYLOAD,2024-02-14 18:42:17,14.98330737,0.0002725,69.999,65.388,274.5275,85.5573,-6.1669e-05,-8.29e-06,0.0,0 STARLINK-6341,1 56786U 23078V   24045.77936511 -.00000829  00000-0 -61669-4 0  9999,2 56786  69.9990  65.3880 0002725 274.5275  85.5573 14.98330737 40242,6950.191,96.107,573.95,570.162,0.0
56786.0,STARLINK-6341,PAYLOAD,2024-02-15 04:19:05,14.9832412,0.0002765,69.9989,64.3767,266.9663,93.118,-9.0744e-06,-2.01e-06,0.0,0 STARLINK-6341,1 56786U 23078V   24046.17992856 -.00000201  00000-0 -90744-5 0  9999,2 56786  69.9989  64.3767 0002765 266.9663  93.1180 14.98324120 40566,6950.211,96.107,573.998,570.154,0.0
56786.0,STARLINK-6341,PAYLOAD,2024-02-15 10:43:39,14.9830672,0.0003025,69.9988,63.7045,268.9802,91.101,-0.00017103,-2.132e-05,0.0,0 STARLINK-6341,1 56786U 23078V   24046.44698502 -.00002132  00000-0 -17103-3 0  9991,2 56786  69.9988  63.7045 0003025 268.9802  91.1010 14.98306720 40605,6950.265,96.108,574.232,570.027,0.0
56786.0,STARLINK-6341,PAYLOAD,2024-02-15 18:44:19,14.98309554,0.0003042,69.9989,62.8629,268.5724,91.5087,-0.00014879,-1.867e-05,0.0,0 STARLINK-6341,1 56786U 23078V   24046.78078667 -.00001867  00000-0 -14879-3 0  9993,2 56786  69.9989  62.8629 0003042 268.5724  91.5087 14.98309554 40394,6950.256,96.108,574.235,570.007,0.0
56786.0,STARLINK-6341,PAYLOAD,2024-02-16 04:21:08,14.98315892,0.0003138,69.9991,61.8531,269.7172,90.3627,-0.0001219,-1.547e-05,0.0,0 STARLINK-6341,1 56786U 23078V   24047.18134555 -.00001547  00000-0 -12190-3 0  9996,2 56786  69.9991  61.8531 0003138 269.7172  90.3627 14.98315892 40719,6950.237,96.108,574.283,569.921,0.0
56786.0,STARLINK-6341,PAYLOAD,2024-02-16 10:45:40,14.98321482,0.0002959,69.999,61.1793,268.3974,91.6847,-5.3624e-05,-7.33e-06,0.0,0 STARLINK-6341,1 56786U 23078V   24047.44838252 -.00000733  00000-0 -53624-4 0  9994,2 56786  69.9990  61.1793 0002959 268.3974  91.6847 14.98321482 40750,6950.219,96.108,574.141,570.028,0.0
56786.0,STARLINK-6341,PAYLOAD,2024-02-17 04:23:08,14.98325404,0.0003139,69.9987,59.3277,268.1705,91.9095,8.6655e-05,9.41e-06,0.0,0 STARLINK-6341,1 56786U 23078V   24048.18273928  .00000941  00000-0  86655-4 0  9998,2 56786  69.9987  59.3277 0003139 268.1705  91.9095 14.98325404 40861,6950.207,96.107,574.254,569.89,0.0
56786.0,STARLINK-6341,PAYLOAD,2024-02-17 10:47:40,14.98337728,0.0003116,69.9986,58.6541,268.5922,91.488,4.7149e-05,4.7e-06,0.0,0 STARLINK-6341,1 56786U 23078V   24048.44977285  .00000470  00000-0  47149-4 0  9996,2 56786  69.9986  58.6541 0003116 268.5922  91.4880 14.98337728 40900,6950.169,96.107,574.2,569.868,0.0
56786.0,STARLINK-6341,PAYLOAD,2024-02-18 10:49:40,14.98347284,0.0003087,69.9989,56.129,268.2146,91.8659,0.00027053,3.138e-05,0.0,0 STARLINK-6341,1 56786U 23078V   24049.45115766  .00003138  00000-0  27053-3 0  9991,2 56786  69.9989  56.1290 0003087 268.2146  91.8659 14.98347284 41052,6950.139,96.106,574.15,569.859,0.0
56786.0,STARLINK-6341,PAYLOAD,2024-02-18 17:14:12,14.98346236,0.0002623,70.0003,55.4546,274.0667,86.0193,3.0255e-05,2.68e-06,0.0,0 STARLINK-6341,1 56786U 23078V   24049.71820315  .00000268  00000-0  30255-4 0  9993,2 56786  70.0003  55.4546 0002623 274.0667  86.0193 14.98346236 41095,6950.143,96.106,573.831,570.185,0.0
56786.0,STARLINK-6341,PAYLOAD,2024-02-19 04:27:09,14.98338016,0.0002846,69.9993,54.2785,267.2448,92.8385,-2.5291e-05,-3.95e-06,0.0,0 STARLINK-6341,1 56786U 23078V   24050.18552676 -.00000395  00000-0 -25291-4 0  9995,2 56786  69.9993  54.2785 0002846 267.2448  92.8385 14.98338016 41163,6950.168,96.106,574.011,570.055,0.0
